[{"OBJECT_NAME":"JILIN-01 KUANFU 02B 4","OBJECT_ID":"2024-169D","EPOCH":"2026-03-09T23:04:43.463424","MEAN_MOTION":15.0922271,"ECCENTRICITY":0.00080501,"INCLINATION":97.5522,"RA_OF_ASC_NODE":159.355,"ARG_OF_PERICENTER":260.1533,"MEAN_ANOMALY":99.8787,"EPHEMERIS_TYPE":0,"CLASSIFICATION_TYPE":"U","NORAD_CAT_ID":61192,"ELEMENT_SET_NO":999,"REV_AT_EPOCH":8086,"BSTAR":0.00035789888,"MEAN_MOTION_DOT":5.634e-5,"MEAN_MOTION_DDOT":0},{"OBJECT_NAME":"TITAN 4B DEB","OBJECT_ID":"2000-047F","EPOCH":"2026-03-09T04:13:48.490752","MEAN_MOTION":14.96028305,"ECCENTRICITY":0.00516331,"INCLINATION":67.9936,"RA_OF_ASC_NODE":127.297,"ARG_OF_PERICENTER":74.4463,"MEAN_ANOMALY":286.2371,"EPHEMERIS_TYPE":0,"CLASSIFICATION_TYPE":"U","NORAD_CAT_ID":40529,"ELEMENT_SET_NO":999,"REV_AT_EPOCH":59778,"BSTAR":5.9507632e-5,"MEAN_MOTION_DOT":5.62e-6,"MEAN_MOTION_DDOT":0}]
